CTC2_L_00302001-01
1 25654U 25666UN  26070.40846065  .00000000  00000+0  00000-0 0  9994
2 25654  50.0000   0.0000 0000000   0.0000   0.0000 13.72670257    10
CTC2_L_00302001-02
1 25655U 26653BE  26070.40846065  .00000000  00000+0  00000-0 0  9992
2 25655  50.0000   0.0000 0000000   0.0000  90.0000 13.72670257    10
CTC2_L_00302001-03
1 25656U 24059CX  26070.40846065  .00000000  00000+0  00000-0 0  9991
2 25656  50.0000   0.0000 0000000   0.0000 180.0000 13.72670257    11
CTC2_L_00302001-04
1 25657U 25889ZU  26070.40846065  .00000000  00000+0  00000-0 0  9994
2 25657  50.0000   0.0000 0000000   0.0000 270.0000 13.72670257    12
CTC2_L_00302002-01
1 25658U 22487XE  26070.40846065  .00000000  00000+0  00000-0 0  9996
2 25658  50.0000  12.0000 0000000   0.0000  12.0000 13.72670257    10
CTC2_L_00302002-02
1 25659U 25796YM  26070.40846065  .00000000  00000+0  00000-0 0  9993
2 25659  50.0000  12.0000 0000000   0.0000 102.0000 13.72670257    11
CTC2_L_00302002-03
1 25660U 26017RS  26070.40846065  .00000000  00000+0  00000-0 0  9992
2 25660  50.0000  12.0000 0000000   0.0000 192.0000 13.72670257    12
CTC2_L_00302002-04
1 25661U 22833BF  26070.40846065  .00000000  00000+0  00000-0 0  9995
2 25661  50.0000  12.0000 0000000   0.0000 282.0000 13.72670257    13
CTC2_L_00302003-01
1 25662U 23128KC  26070.40846065  .00000000  00000+0  00000-0 0  9994
2 25662  50.0000  24.0000 0000000   0.0000  24.0000 13.72670257    11
CTC2_L_00302003-02
1 25663U 25464WY  26070.40846065  .00000000  00000+0  00000-0 0  9990
2 25663  50.0000  24.0000 0000000   0.0000 114.0000 13.72670257    12
CTC2_L_00302003-03
1 25664U 26253ZM  26070.40846065  .00000000  00000+0  00000-0 0  9998
2 25664  50.0000  24.0000 0000000   0.0000 204.0000 13.72670257    13
CTC2_L_00302003-04
1 25665U 23462HV  26070.40846065  .00000000  00000+0  00000-0 0  9998
2 25665  50.0000  24.0000 0000000   0.0000 294.0000 13.72670257    13
CTC2_L_00302004-01
1 25666U 26604AL  26070.40846065  .00000000  00000+0  00000-0 0  9990
2 25666  50.0000  36.0000 0000000   0.0000  36.0000 13.72670257    11
CTC2_L_00302004-02
1 25667U 24735VZ  26070.40846065  .00000000  00000+0  00000-0 0  9994
2 25667  50.0000  36.0000 0000000   0.0000 126.0000 13.72670257    12
CTC2_L_00302004-03
1 25668U 22435SS  26070.40846065  .00000000  00000+0  00000-0 0  9990
2 25668  50.0000  36.0000 0000000   0.0000 216.0000 13.72670257    13
CTC2_L_00302004-04
1 25669U 22412ZR  26070.40846065  .00000000  00000+0  00000-0 0  9996
2 25669  50.0000  36.0000 0000000   0.0000 306.0000 13.72670257    14
CTC2_L_00302005-01
1 25670U 23345XQ  26070.40846065  .00000000  00000+0  00000-0 0  9994
2 25670  50.0000  48.0000 0000000   0.0000  48.0000 13.72670257    12
CTC2_L_00302005-02
1 25671U 26080SM  26070.40846065  .00000000  00000+0  00000-0 0  9994
2 25671  50.0000  48.0000 0000000   0.0000 138.0000 13.72670257    13
CTC2_L_00302005-03
1 25672U 23386EX  26070.40846065  .00000000  00000+0  00000-0 0  9991
2 25672  50.0000  48.0000 0000000   0.0000 228.0000 13.72670257    14
CTC2_L_00302005-04
1 25673U 26471MG  26070.40846065  .00000000  00000+0  00000-0 0  9990
2 25673  50.0000  48.0000 0000000   0.0000 318.0000 13.72670257    15
CTC2_L_00302006-01
1 25674U 24755HM  26070.40846065  .00000000  00000+0  00000-0 0  9994
2 25674  50.0000  60.0000 0000000   0.0000  60.0000 13.72670257    14
CTC2_L_00302006-02
1 25675U 23413SE  26070.40846065  .00000000  00000+0  00000-0 0  9995
2 25675  50.0000  60.0000 0000000   0.0000 150.0000 13.72670257    15
CTC2_L_00302006-03
1 25676U 23062PV  26070.40846065  .00000000  00000+0  00000-0 0  9996
2 25676  50.0000  60.0000 0000000   0.0000 240.0000 13.72670257    16
CTC2_L_00302006-04
1 25677U 24082GQ  26070.40846065  .00000000  00000+0  00000-0 0  9990
2 25677  50.0000  60.0000 0000000   0.0000 330.0000 13.72670257    17
CTC2_L_00302007-01
1 25678U 23410TI  26070.40846065  .00000000  00000+0  00000-0 0  9995
2 25678  50.0000  72.0000 0000000   0.0000  72.0000 13.72670257    14
CTC2_L_00302007-02
1 25679U 26160SO  26070.40846065  .00000000  00000+0  00000-0 0  9991
2 25679  50.0000  72.0000 0000000   0.0000 162.0000 13.72670257    15
CTC2_L_00302007-03
1 25680U 23948WX  26070.40846065  .00000000  00000+0  00000-0 0  9994
2 25680  50.0000  72.0000 0000000   0.0000 252.0000 13.72670257    17
CTC2_L_00302007-04
1 25681U 23204FO  26070.40846065  .00000000  00000+0  00000-0 0  9990
2 25681  50.0000  72.0000 0000000   0.0000 342.0000 13.72670257    18
CTC2_L_00302008-01
1 25682U 23626CR  26070.40846065  .00000000  00000+0  00000-0 0  9999
2 25682  50.0000  84.0000 0000000   0.0000  84.0000 13.72670257    15
CTC2_L_00302008-02
1 25683U 25416EH  26070.40846065  .00000000  00000+0  00000-0 0  9999
2 25683  50.0000  84.0000 0000000   0.0000 174.0000 13.72670257    16
CTC2_L_00302008-03
1 25684U 25370WF  26070.40846065  .00000000  00000+0  00000-0 0  9999
2 25684  50.0000  84.0000 0000000   0.0000 264.0000 13.72670257    17
CTC2_L_00302008-04
1 25685U 25330JN  26070.40846065  .00000000  00000+0  00000-0 0  9996
2 25685  50.0000  84.0000 0000000   0.0000 354.0000 13.72670257    18
CTC2_L_00302009-01
1 25686U 25255DS  26070.40846065  .00000000  00000+0  00000-0 0  9993
2 25686  50.0000  96.0000 0000000   0.0000  96.0000 13.72670257    15
CTC2_L_00302009-02
1 25687U 24952GO  26070.40846065  .00000000  00000+0  00000-0 0  9997
2 25687  50.0000  96.0000 0000000   0.0000 186.0000 13.72670257    16
CTC2_L_00302009-03
1 25688U 22907DK  26070.40846065  .00000000  00000+0  00000-0 0  9996
2 25688  50.0000  96.0000 0000000   0.0000 276.0000 13.72670257    17
CTC2_L_00302009-04
1 25689U 24173UO  26070.40846065  .00000000  00000+0  00000-0 0  9994
2 25689  50.0000  96.0000 0000000   0.0000   6.0000 13.72670257    19
CTC2_L_00302010-01
1 25690U 25397PS  26070.40846065  .00000000  00000+0  00000-0 0  9995
2 25690  50.0000 108.0000 0000000   0.0000 108.0000 13.72670257    18
CTC2_L_00302010-02
1 25691U 24180DD  26070.40846065  .00000000  00000+0  00000-0 0  9995
2 25691  50.0000 108.0000 0000000   0.0000 198.0000 13.72670257    18
CTC2_L_00302010-03
1 25692U 23873VN  26070.40846065  .00000000  00000+0  00000-0 0  9994
2 25692  50.0000 108.0000 0000000   0.0000 288.0000 13.72670257    19
CTC2_L_00302010-04
1 25693U 22681SN  26070.40846065  .00000000  00000+0  00000-0 0  9991
2 25693  50.0000 108.0000 0000000   0.0000  18.0000 13.72670257    11
CTC2_L_00302011-01
1 25694U 22027LB  26070.40846065  .00000000  00000+0  00000-0 0  9996
2 25694  50.0000 120.0000 0000000   0.0000 120.0000 13.72670257    10
CTC2_L_00302011-02
1 25695U 24785VN  26070.40846065  .00000000  00000+0  00000-0 0  9990
2 25695  50.0000 120.0000 0000000   0.0000 210.0000 13.72670257    11
CTC2_L_00302011-03
1 25696U 25906CL  26070.40846065  .00000000  00000+0  00000-0 0  9997
2 25696  50.0000 120.0000 0000000   0.0000 300.0000 13.72670257    12
CTC2_L_00302011-04
1 25697U 24214XS  26070.40846065  .00000000  00000+0  00000-0 0  9999
2 25697  50.0000 120.0000 0000000   0.0000  30.0000 13.72670257    13
CTC2_L_00302012-01
1 25698U 25176QH  26070.40846065  .00000000  00000+0  00000-0 0  9998
2 25698  50.0000 132.0000 0000000   0.0000 132.0000 13.72670257    10
CTC2_L_00302012-02
1 25699U 26613UP  26070.40846065  .00000000  00000+0  00000-0 0  9996
2 25699  50.0000 132.0000 0000000   0.0000 222.0000 13.72670257    11
CTC2_L_00302012-03
1 25700U 26870LS  26070.40846065  .00000000  00000+0  00000-0 0  9994
2 25700  50.0000 132.0000 0000000   0.0000 312.0000 13.72670257    14
CTC2_L_00302012-04
1 25701U 25378YM  26070.40846065  .00000000  00000+0  00000-0 0  9997
2 25701  50.0000 132.0000 0000000   0.0000  42.0000 13.72670257    15
CTC2_L_00302013-01
1 25702U 22410HF  26070.40846065  .00000000  00000+0  00000-0 0  9992
2 25702  50.0000 144.0000 0000000   0.0000 144.0000 13.72670257    12
CTC2_L_00302013-02
1 25703U 24638LZ  26070.40846065  .00000000  00000+0  00000-0 0  9997
2 25703  50.0000 144.0000 0000000   0.0000 234.0000 13.72670257    13
CTC2_L_00302013-03
1 25704U 25972ZO  26070.40846065  .00000000  00000+0  00000-0 0  9990
2 25704  50.0000 144.0000 0000000   0.0000 324.0000 13.72670257    14
CTC2_L_00302013-04
1 25705U 25941N   26070.40846065  .00000000  00000+0  00000-0 0  9997
2 25705  50.0000 144.0000 0000000   0.0000  54.0000 13.72670257    15
CTC2_L_00302014-01
1 25706U 26231AU  26070.40846065  .00000000  00000+0  00000-0 0  9991
2 25706  50.0000 156.0000 0000000   0.0000 156.0000 13.72670257    12
CTC2_L_00302014-02
1 25707U 25470UO  26070.40846065  .00000000  00000+0  00000-0 0  9996
2 25707  50.0000 156.0000 0000000   0.0000 246.0000 13.72670257    13
CTC2_L_00302014-03
1 25708U 26476NE  26070.40846065  .00000000  00000+0  00000-0 0  9994
2 25708  50.0000 156.0000 0000000   0.0000 336.0000 13.72670257    14
CTC2_L_00302014-04
1 25709U 26891XY  26070.40846065  .00000000  00000+0  00000-0 0  9996
2 25709  50.0000 156.0000 0000000   0.0000  66.0000 13.72670257    15
CTC2_L_00302015-01
1 25710U 25562RG  26070.40846065  .00000000  00000+0  00000-0 0  9992
2 25710  50.0000 168.0000 0000000   0.0000 168.0000 13.72670257    13
CTC2_L_00302015-02
1 25711U 26072CO  26070.40846065  .00000000  00000+0  00000-0 0  9990
2 25711  50.0000 168.0000 0000000   0.0000 258.0000 13.72670257    14
CTC2_L_00302015-03
1 25712U 25692JN  26070.40846065  .00000000  00000+0  00000-0 0  9998
2 25712  50.0000 168.0000 0000000   0.0000 348.0000 13.72670257    15
CTC2_L_00302015-04
1 25713U 26306RB  26070.40846065  .00000000  00000+0  00000-0 0  9992
2 25713  50.0000 168.0000 0000000   0.0000  78.0000 13.72670257    16
CTC2_L_00302016-01
1 25714U 23740RY  26070.40846065  .00000000  00000+0  00000-0 0  9992
2 25714  50.0000 180.0000 0000000   0.0000 180.0000 13.72670257    15
CTC2_L_00302016-02
1 25715U 24502ZY  26070.40846065  .00000000  00000+0  00000-0 0  9990
2 25715  50.0000 180.0000 0000000   0.0000 270.0000 13.72670257    16
